[{"OBJECT_NAME":"STARLINK-4797","OBJECT_ID":"2022-114AL","EPOCH":"2026-03-09T21:27:28.378944","MEAN_MOTION":15.08838488,"ECCENTRICITY":0.00013892,"INCLINATION":53.2167,"RA_OF_ASC_NODE":288.1362,"ARG_OF_PERICENTER":98.6724,"MEAN_ANOMALY":261.4426,"EPHEMERIS_TYPE":0,"CLASSIFICATION_TYPE":"U","NORAD_CAT_ID":53852,"ELEMENT_SET_NO":999,"REV_AT_EPOCH":19307,"BSTAR":-1.2817237e-5,"MEAN_MOTION_DOT":-4.92e-6,"MEAN_MOTION_DDOT":0},{"OBJECT_NAME":"OBJECT H","OBJECT_ID":"2025-292H","EPOCH":"2026-03-09T22:24:53.558208","MEAN_MOTION":15.06373042,"ECCENTRICITY":0.00142604,"INCLINATION":97.6442,"RA_OF_ASC_NODE":145.7846,"ARG_OF_PERICENTER":348.9217,"MEAN_ANOMALY":11.1694,"EPHEMERIS_TYPE":0,"CLASSIFICATION_TYPE":"U","NORAD_CAT_ID":67000,"ELEMENT_SET_NO":999,"REV_AT_EPOCH":1338,"BSTAR":0.0005462937,"MEAN_MOTION_DOT":8.001e-5,"MEAN_MOTION_DDOT":0}]
